[{"OBJECT_NAME":"STARLINK-4717","OBJECT_ID":"2022-107F","EPOCH":"2026-03-09T17:00:34.692768","MEAN_MOTION":15.08835865,"ECCENTRICITY":0.00013415,"INCLINATION":53.2162,"RA_OF_ASC_NODE":244.2516,"ARG_OF_PERICENTER":91.245,"MEAN_ANOMALY":268.8696,"EPHEMERIS_TYPE":0,"CLASSIFICATION_TYPE":"U","NORAD_CAT_ID":53705,"ELEMENT_SET_NO":999,"REV_AT_EPOCH":19485,"BSTAR":3.56558e-6,"MEAN_MOTION_DOT":-2.31e-6,"MEAN_MOTION_DDOT":0},{"OBJECT_NAME":"MINOTAUR 4 R\/B","OBJECT_ID":"2020-046E","EPOCH":"2026-03-09T23:21:28.488960","MEAN_MOTION":15.06543892,"ECCENTRICITY":0.00095926,"INCLINATION":53.9792,"RA_OF_ASC_NODE":306.0413,"ARG_OF_PERICENTER":86.078,"MEAN_ANOMALY":274.1318,"EPHEMERIS_TYPE":0,"CLASSIFICATION_TYPE":"U","NORAD_CAT_ID":45877,"ELEMENT_SET_NO":999,"REV_AT_EPOCH":23396,"BSTAR":0.00016618262,"MEAN_MOTION_DOT":2.204e-5,"MEAN_MOTION_DDOT":0}]
